MEAN_MOTION;ECCENTRICITY;INCLINATION;RA_OF_ASC_NODE;ARG_OF_PERICENTER;MEAN_ANOMALY;BSTAR;MEAN_MOTION_DOT;MEAN_MOTION_DDOT;TYPE
1.00271453;5.41E-5;0.0277;296.905;78.8058;44.9582;0;-2.62E-6;0;Weather
1.00270834;5.89E-5;0.0431;335.0757;42.4598;276.376;0;-2.65E-6;0;Weather
1.00270834;5.89E-5;0.0431;335.0757;42.4598;276.376;0;-2.65E-6;0;Weather
1.00270939;6.18E-5;0.0428;335.2891;43.7449;18.5514;0;-2.65E-6;0;Weather
1.00270841;6.45E-5;0.0429;335.9131;46.9894;273.8229;0;-2.68E-6;0;Weather
1.00270701;6.58E-5;0.0427;336.4502;47.5401;16.3929;0;-2.69E-6;0;Weather
1.00270642;6.67E-5;0.0433;337.6948;51.0578;257.4785;0;-2.71E-6;0;Weather
1.00271961;6.46E-5;0.0434;338.492;44.8253;19.8744;0;-2.72E-6;0;Weather
1.00271933;6.7E-5;0.044;339.8958;44.2367;122.7027;0;-2.72E-6;0;Weather
1.00271835;6.79E-5;0.0443;339.6201;47.4706;249.312;0;-2.73E-6;0;Weather
1.00271805;6.81E-5;0.0455;336.8392;50.9845;274.5121;0;-2.73E-6;0;Weather
1.00271731;8.37E-5;0.0382;356.9777;42.9685;239.2742;0;-2.74E-6;0;Weather
1.00271731;8.37E-5;0.0382;356.9777;42.9685;239.2742;0;-2.74E-6;0;Weather
1.0027157;8.18E-5;0.0494;342.6881;57.1561;265.2298;0;-2.74E-6;0;Weather
1.00271221;7.7E-5;0.0376;353.305;45.3603;10.11;0;-2.74E-6;0;Weather
1.00271242;8.52E-5;0.0408;357.2353;47.209;211.6581;0;-2.74E-6;0;Weather
1.00271319;9.91E-5;0.0495;348.2844;64.4459;220.4191;0;-2.74E-6;0;Weather
1.00271217;9.58E-5;0.048;346.1555;65.9149;359.5024;0;-2.74E-6;0;Weather
1.002712;8.5E-5;0.0475;347.1971;62.1916;235.4282;0;-2.73E-6;0;Weather
1.002712;8.5E-5;0.0475;347.1971;62.1916;235.4282;0;-2.73E-6;0;Weather
1.00271189;8.5E-5;0.047;347.1019;63.6921;337.6586;0;-2.73E-6;0;Weather
1.00272118;9.32E-5;0.0459;358.3196;58.6764;0.1981;0;-2.72E-6;0;Weather
1.00271914;9.31E-5;0.045;353.334;63.5994;233.4937;0;-2.71E-6;0;Weather
1.00271894;9.37E-5;0.0447;356.2344;62.2112;335.6493;0;-2.7E-6;0;Weather
1.00271742;0.0001007;0.0439;356.1968;66.8555;230.1741;0;-2.7E-6;0;Weather
1.00271611;9.8E-5;0.0416;350.7954;70.7757;1.2317;0;-2.69E-6;0;Weather
1.00271526;0.0001016;0.0397;349.948;75.1122;205.055;0;-2.69E-6;0;Weather
1.0027151;0.0001017;0.0388;348.4666;76.7343;230.8314;0;-2.69E-6;0;Weather
1.00272349;9.72E-5;0.0364;348.6769;78.1613;222.8841;0;-2.69E-6;0;Weather
1.00272349;9.72E-5;0.0364;348.6769;78.1613;222.8841;0;-2.69E-6;0;Weather
1.00272282;9.72E-5;0.0124;309.0807;118.1935;335.1772;0;-2.68E-6;0;Weather
1.0027226;9.77E-5;0.0059;348.5758;79.4033;20.8148;0;-2.68E-6;0;Weather
1.00272126;9.87E-5;0.005;318.2985;111.5665;231.7916;0;-2.68E-6;0;Weather
1.00272044;9.85E-5;0.0163;8.3586;62.014;0.8209;0;-2.67E-6;0;Weather
1.00272343;0.0001092;0.0078;350.5979;84.39;201.5503;0;-2.67E-6;0;Weather
1.00272598;0.0001036;0.0142;359.8281;71.0995;228.2261;0;-2.67E-6;0;Weather
1.00271858;0.0001032;0.0158;6.7711;67.2463;359.9798;0;-2.66E-6;0;Weather
1.00271851;9.63E-5;0.0085;29.0037;47.121;205.1611;0;-2.66E-6;0;Weather
1.0027185;9.44E-5;0.0147;11.9;63.7015;231.6166;0;-2.66E-6;0;Weather
1.00271854;9.27E-5;0.0084;32.4135;42.0956;336.3776;0;-2.65E-6;0;Weather
1.0027246;9.05E-5;0.0066;93.7484;340.9435;105.754;0;-2.65E-6;0;Weather
1.00272388;8.98E-5;0.0101;64.8693;10.342;213.1668;0;-2.64E-6;0;Weather
1.00272362;9.1E-5;0.0353;37.3165;39.4242;233.291;0;-2.64E-6;0;Weather
1.00272281;9.0E-5;0.0095;91.2122;344.123;338.3336;0;-2.64E-6;0;Weather
1.00272263;8.97E-5;0.0168;20.3492;54.9961;4.2651;0;-2.63E-6;0;Weather
1.00272238;8.94E-5;0.0083;53.3957;22.0118;35.9254;0;-2.63E-6;0;Weather
1.00272346;8.83E-5;0.0116;299.5836;134.7669;194.2397;0;-2.63E-6;0;Weather
1.00272346;8.83E-5;0.0116;299.5836;134.7669;194.2397;0;-2.63E-6;0;Weather
1.00271803;8.75E-5;0.0258;334.5566;101.7155;340.2235;0;-2.61E-6;0;Weather
1.00271833;8.59E-5;0.0038;256.2339;179.3604;79.7889;0;-2.61E-6;0;Weather
1.00271695;8.39E-5;0.0022;314.6875;121.3577;220.6316;0;-2.6E-6;0;Weather
1.00271695;8.39E-5;0.0022;314.6875;121.3577;220.6316;0;-2.6E-6;0;Weather
1.00271695;8.39E-5;0.0022;314.6875;121.3577;220.6316;0;-2.6E-6;0;Weather
1.00271603;8.24E-5;0.0107;17.8824;58.6113;330.3257;0;-2.59E-6;0;Weather
1.002714;8.48E-5;0.0068;0.1177;78.8009;177.2519;0;-2.58E-6;0;Weather
1.002714;8.48E-5;0.0068;0.1177;78.8009;177.2519;0;-2.58E-6;0;Weather
1.00273039;7.01E-5;0.0175;13.0502;62.2405;346.802;0;-2.57E-6;0;Weather
1.00272931;6.82E-5;0.0175;15.1708;59.1536;85.5428;0;-2.56E-6;0;Weather
1.00272762;6.59E-5;0.0174;19.8779;53.423;222.0345;0;-2.55E-6;0;Weather
1.00272625;6.5E-5;0.0182;21.0307;52.2563;351.5974;0;-2.54E-6;0;Weather
1.00272328;6.08E-5;0.0224;25.9881;44.0709;221.4643;0;-2.53E-6;0;Weather
1.00272283;6.21E-5;0.0137;31.1583;39.2821;253.6157;0;-2.53E-6;0;Weather
1.00272126;5.97E-5;0.0219;27.6464;42.3146;357.7324;0;-2.52E-6;0;Weather
1.00271846;5.84E-5;0.0223;29.3638;38.0732;228.5738;0;-2.52E-6;0;Weather
1.00271846;5.84E-5;0.0223;29.3638;38.0732;228.5738;0;-2.52E-6;0;Weather
1.00271748;5.93E-5;0.0228;28.9658;39.4104;2.1413;0;-2.51E-6;0;Weather
1.00271685;5.89E-5;0.0032;271.8392;155.8768;54.604;0;-2.51E-6;0;Weather
1.00271685;5.89E-5;0.0032;271.8392;155.8768;54.604;0;-2.51E-6;0;Weather
1.0027153;5.23E-5;0.0237;30.1884;30.399;41.9987;0;-2.5E-6;0;Weather
1.00273341;4.85E-5;0.043;39.6919;15.9312;121.3328;0;-2.51E-6;0;Weather
1.00272107;5.48E-5;0.0431;37.8094;22.3551;246.3759;0;-2.51E-6;0;Weather
1.00271889;5.19E-5;0.0418;39.8005;17.5745;18.7429;0;-2.51E-6;0;Weather
1.00274602;4.36E-5;0.0227;343.1899;56.4661;114.2151;0;-2.51E-6;0;Weather
1.00271528;5.44E-5;0.0063;325.9079;88.9889;256.7689;0;-2.52E-6;0;Weather
1.00271528;5.44E-5;0.0063;325.9079;88.9889;256.7689;0;-2.52E-6;0;Weather
1.00271271;5.53E-5;0.0243;352.6562;61.327;24.9327;0;-2.52E-6;0;Weather
1.00271198;5.5E-5;0.0327;8.5811;45.6564;130.3326;0;-2.53E-6;0;Weather
1.00271084;5.69E-5;0.0329;11.2392;42.1292;232.8464;0;-2.53E-6;0;Weather
1.00271065;5.67E-5;0.0313;7.9748;44.4127;259.7403;0;-2.53E-6;0;Weather
1.00270708;5.94E-5;0.0382;48.1987;2.3078;225.9555;0;-2.56E-6;0;Weather
1.00270708;5.94E-5;0.0382;48.1987;2.3078;225.9555;0;-2.56E-6;0;Weather
1.00270765;5.82E-5;0.0336;43.8141;5.1059;266.0326;0;-2.57E-6;0;Weather
1.00270684;5.8E-5;0.0347;42.9662;6.7701;8.875;0;-2.57E-6;0;Weather
1.00271622;5.81E-5;0.0339;41.2787;4.5898;234.5079;0;-2.6E-6;0;Weather
1.00271563;5.89E-5;0.0335;41.2397;5.0279;271.4776;0;-2.6E-6;0;Weather
1.00271375;6.19E-5;0.0435;46.2966;358.8125;42.221;0;-2.61E-6;0;Weather
1.00271319;6.51E-5;0.0289;1.056;45.9197;241.9727;0;-2.63E-6;0;Weather
1.00271122;6.45E-5;0.0292;1.7418;46.0332;272.7839;0;-2.63E-6;0;Weather
1.00271079;6.63E-5;0.0361;17.7214;29.4472;17.0221;0;-2.64E-6;0;Weather
1.00270937;7.13E-5;0.0057;1.09;48.2836;244.8679;0;-2.66E-6;0;Weather
1.00270903;7.18E-5;0.0087;280.8905;128.8794;273.5684;0;-2.66E-6;0;Weather
1.0027075;7.37E-5;0.0146;340.8304;69.1723;42.9188;0;-2.67E-6;0;Weather
1.00270681;7.51E-5;0.0153;29.0718;21.2178;120.3751;0;-2.68E-6;0;Weather
1.00270637;7.68E-5;0.0198;40.9757;11.6274;221.7123;0;-2.68E-6;0;Weather
1.00272652;7.06E-5;0.0073;351.0111;56.2342;48.4914;0;-2.69E-6;0;Weather
1.00272343;7.57E-5;0.0068;24.5001;25.4145;255.6139;0;-2.7E-6;0;Weather
1.00272172;8.0E-5;0.0046;325.5032;86.5862;20.5222;0;-2.7E-6;0;Weather
1.00271963;8.7E-5;0.0155;345.46;72.1289;17.8135;0;-2.69E-6;0;Weather
1.00271753;9.06E-5;0.0084;14.6726;45.4997;248.4836;0;-2.69E-6;0;Weather
1.00271696;9.28E-5;0.0056;8.8238;52.355;359.6637;0;-2.69E-6;0;Weather
1.00271744;0.0001055;0.0212;53.1321;15.9786;250.862;0;-2.68E-6;0;Weather
1.00271744;0.0001055;0.0212;53.1321;15.9786;250.862;0;-2.68E-6;0;Weather
1.00271634;9.7E-5;0.0089;45.9439;18.3484;16.7234;0;-2.67E-6;0;Weather
1.00271629;0.0001016;0.0402;65.3201;2.7291;258.2108;0;-2.67E-6;0;Weather
1.00271629;0.0001016;0.0402;65.3201;2.7291;258.2108;0;-2.67E-6;0;Weather
1.00271611;0.0001031;0.0224;57.844;10.7034;15.2712;0;-2.66E-6;0;Weather
1.00271443;0.0001139;0.0054;24.0232;52.5766;117.2349;0;-2.66E-6;0;Weather
1.00271679;0.0001096;0.0183;54.717;19.768;231.2545;0;-2.66E-6;0;Weather
1.00271853;0.0001063;0.0179;56.6195;15.2864;271.06;0;-2.66E-6;0;Weather
1.00271861;0.0001112;0.0128;354.2161;81.0708;11.346;0;-2.65E-6;0;Weather
1.00271794;0.0001135;0.0056;352.9156;83.8498;243.0862;0;-2.65E-6;0;Weather
1.00271659;0.0001121;0.0057;288.7113;147.4802;38.4098;0;-2.64E-6;0;Weather
1.00271641;0.0001136;0.0059;18.3878;58.8349;112.9064;0;-2.64E-6;0;Weather
1.00271661;0.0001132;0.0027;298.1464;140.247;218.3435;0;-2.64E-6;0;Weather
1.00271746;0.0001137;0.0047;299.1357;141.1309;242.3871;0;-2.64E-6;0;Weather
1.00271746;0.0001137;0.0047;299.1357;141.1309;242.3871;0;-2.64E-6;0;Weather
1.00271685;0.0001104;0.0153;60.7316;17.5578;13.9528;0;-2.63E-6;0;Weather
1.00272263;0.0001131;0.0066;40.5752;40.6926;244.1986;0;-2.63E-6;0;Weather
1.002722;0.0001133;0.0087;60.1897;21.7736;346.8035;0;-2.63E-6;0;Weather
1.00272188;0.0001134;0.01;62.9948;19.2631;12.776;0;-2.62E-6;0;Weather
1.00272234;0.0001145;0.0066;276.3565;167.0329;244.8811;0;-2.62E-6;0;Weather
1.00272053;0.0001142;0.0059;58.4869;26.1868;13.1555;0;-2.61E-6;0;Weather
1.00271872;0.0001129;0.0038;286.7266;158.7492;245.5944;0;-2.61E-6;0;Weather
1.00271765;0.0001123;0.003;59.5453;26.6969;14.4129;0;-2.6E-6;0;Weather
1.00271674;0.0001124;0.0016;51.7313;35.9691;123.8999;0;-2.6E-6;0;Weather
1.00271612;0.0001147;0.0016;60.0767;29.3447;229.4306;0;-2.59E-6;0;Weather
1.00271621;0.0001095;0.0021;63.7868;26.0305;13.6265;0;-2.58E-6;0;Weather
1.00272272;0.0001037;0.0001;98.1718;351.3268;247.1753;0;-2.57E-6;0;Weather
1.00272191;0.0001031;0.0015;117.2922;333.3121;338.6014;0;-2.57E-6;0;Weather
1.00271852;9.95E-5;0.0021;117.0866;333.6148;331.2173;0;-2.55E-6;0;Weather
1.00271831;9.93E-5;0.0032;116.9637;333.8557;352.3125;0;-2.54E-6;0;Weather
1.00271641;9.42E-5;0.0071;71.4726;21.7065;220.4125;0;-2.53E-6;0;Weather
1.00271511;9.34E-5;0.0121;67.9146;25.3818;352.6015;0;-2.51E-6;0;Weather
1.00271288;8.96E-5;0.0095;66.8091;26.8457;225.4612;0;-2.5E-6;0;Weather
1.00271288;8.96E-5;0.0095;66.8091;26.8457;225.4612;0;-2.5E-6;0;Weather
1.00271141;9.15E-5;0.0051;66.4344;26.9538;21.2262;0;-2.49E-6;0;Weather
1.00270822;8.82E-5;0.0088;70.0297;23.489;228.3982;0;-2.48E-6;0;Weather
